[{"OBJECT_NAME":"NEXTSAT-2","OBJECT_ID":"2023-072A","EPOCH":"2026-03-09T23:10:55.073280","MEAN_MOTION":15.26393087,"ECCENTRICITY":0.00062633,"INCLINATION":97.5306,"RA_OF_ASC_NODE":265.1019,"ARG_OF_PERICENTER":22.4193,"MEAN_ANOMALY":337.7318,"EPHEMERIS_TYPE":0,"CLASSIFICATION_TYPE":"U","NORAD_CAT_ID":56743,"ELEMENT_SET_NO":999,"REV_AT_EPOCH":15445,"BSTAR":0.00056400163,"MEAN_MOTION_DOT":0.00014622,"MEAN_MOTION_DDOT":0},{"OBJECT_NAME":"STARLINK-34681","OBJECT_ID":"2025-259S","EPOCH":"2026-03-09T21:44:54.042720","MEAN_MOTION":15.27602087,"ECCENTRICITY":0.00019215,"INCLINATION":43,"RA_OF_ASC_NODE":273.1825,"ARG_OF_PERICENTER":263.5308,"MEAN_ANOMALY":96.5325,"EPHEMERIS_TYPE":0,"CLASSIFICATION_TYPE":"U","NORAD_CAT_ID":66438,"ELEMENT_SET_NO":999,"REV_AT_EPOCH":1941,"BSTAR":0.0010530093,"MEAN_MOTION_DOT":0.00028848,"MEAN_MOTION_DDOT":0}]
